[{"OBJECT_NAME":"IRIDIUM 173","OBJECT_ID":"2019-002D","EPOCH":"2026-03-07T09:27:58.828896","MEAN_MOTION":14.34216486,"ECCENTRICITY":0.00020193,"INCLINATION":86.3969,"RA_OF_ASC_NODE":36.0922,"ARG_OF_PERICENTER":82.7041,"MEAN_ANOMALY":277.4385,"EPHEMERIS_TYPE":0,"CLASSIFICATION_TYPE":"U","NORAD_CAT_ID":43925,"ELEMENT_SET_NO":999,"REV_AT_EPOCH":37436,"BSTAR":-1.6666324e-5,"MEAN_MOTION_DOT":-2.7e-7,"MEAN_MOTION_DDOT":0},{"OBJECT_NAME":"IRIDIUM 169","OBJECT_ID":"2019-002E","EPOCH":"2026-03-07T11:48:41.623488","MEAN_MOTION":14.38611595,"ECCENTRICITY":0.00014597,"INCLINATION":86.4169,"RA_OF_ASC_NODE":67.7065,"ARG_OF_PERICENTER":79.5064,"MEAN_ANOMALY":280.6298,"EPHEMERIS_TYPE":0,"CLASSIFICATION_TYPE":"U","NORAD_CAT_ID":43926,"ELEMENT_SET_NO":999,"REV_AT_EPOCH":37560,"BSTAR":6.5673864e-5,"MEAN_MOTION_DOT":2.21e-6,"MEAN_MOTION_DDOT":0},{"OBJECT_NAME":"IRIDIUM 172","OBJECT_ID":"2019-002F","EPOCH":"2026-03-07T10:59:18.652128","MEAN_MOTION":14.34219888,"ECCENTRICITY":0.00023828,"INCLINATION":86.3969,"RA_OF_ASC_NODE":36.0729,"ARG_OF_PERICENTER":86.2095,"MEAN_ANOMALY":273.9373,"EPHEMERIS_TYPE":0,"CLASSIFICATION_TYPE":"U","NORAD_CAT_ID":43927,"ELEMENT_SET_NO":999,"REV_AT_EPOCH":37438,"BSTAR":8.8028817e-5,"MEAN_MOTION_DOT":2.66e-6,"MEAN_MOTION_DDOT":0},{"OBJECT_NAME":"IRIDIUM 175","OBJECT_ID":"2019-002G","EPOCH":"2026-03-07T11:23:34.441152","MEAN_MOTION":14.7222475,"ECCENTRICITY":0.00029314,"INCLINATION":86.1539,"RA_OF_ASC_NODE":333.7114,"ARG_OF_PERICENTER":101.702,"MEAN_ANOMALY":258.4525,"EPHEMERIS_TYPE":0,"CLASSIFICATION_TYPE":"U","NORAD_CAT_ID":43928,"ELEMENT_SET_NO":999,"REV_AT_EPOCH":38427,"BSTAR":0.00021386675,"MEAN_MOTION_DOT":1.373e-5,"MEAN_MOTION_DDOT":0},{"OBJECT_NAME":"IRIDIUM 171","OBJECT_ID":"2019-002H","EPOCH":"2026-03-07T10:31:54.961248","MEAN_MOTION":14.34217429,"ECCENTRICITY":0.00021047,"INCLINATION":86.3979,"RA_OF_ASC_NODE":36.3758,"ARG_OF_PERICENTER":92.0753,"MEAN_ANOMALY":268.0684,"EPHEMERIS_TYPE":0,"CLASSIFICATION_TYPE":"U","NORAD_CAT_ID":43929,"ELEMENT_SET_NO":999,"REV_AT_EPOCH":37437,"BSTAR":-1.640434e-6,"MEAN_MOTION_DOT":1.5e-7,"MEAN_MOTION_DDOT":0},{"OBJECT_NAME":"IRIDIUM 170","OBJECT_ID":"2019-002J","EPOCH":"2026-03-07T10:01:12.973728","MEAN_MOTION":14.72255936,"ECCENTRICITY":0.00027108,"INCLINATION":86.609,"RA_OF_ASC_NODE":36.0752,"ARG_OF_PERICENTER":89.4254,"MEAN_ANOMALY":270.7274,"EPHEMERIS_TYPE":0,"CLASSIFICATION_TYPE":"U","NORAD_CAT_ID":43930,"ELEMENT_SET_NO":999,"REV_AT_EPOCH":38428,"BSTAR":0.00022752894,"MEAN_MOTION_DOT":1.46e-5,"MEAN_MOTION_DDOT":0},{"OBJECT_NAME":"IRIDIUM 167","OBJECT_ID":"2019-002K","EPOCH":"2026-03-07T10:22:46.904448","MEAN_MOTION":14.34217156,"ECCENTRICITY":0.00017775,"INCLINATION":86.3965,"RA_OF_ASC_NODE":36.1053,"ARG_OF_PERICENTER":92.0731,"MEAN_ANOMALY":268.0669,"EPHEMERIS_TYPE":0,"CLASSIFICATION_TYPE":"U","NORAD_CAT_ID":43931,"ELEMENT_SET_NO":999,"REV_AT_EPOCH":37437,"BSTAR":-2.059227e-5,"MEAN_MOTION_DOT":-3.8e-7,"MEAN_MOTION_DDOT":0},{"OBJECT_NAME":"IRIDIUM 181","OBJECT_ID":"2023-068S","EPOCH":"2026-03-07T11:16:09.373152","MEAN_MOTION":14.43317267,"ECCENTRICITY":0.00026376,"INCLINATION":86.4456,"RA_OF_ASC_NODE":99.3284,"ARG_OF_PERICENTER":96.3961,"MEAN_ANOMALY":263.754,"EPHEMERIS_TYPE":0,"CLASSIFICATION_TYPE":"U","NORAD_CAT_ID":56726,"ELEMENT_SET_NO":999,"REV_AT_EPOCH":14776,"BSTAR":0.0001229312,"MEAN_MOTION_DOT":4.34e-6,"MEAN_MOTION_DDOT":0},{"OBJECT_NAME":"IRIDIUM 177","OBJECT_ID":"2023-068T","EPOCH":"2026-03-07T09:06:12.363264","MEAN_MOTION":14.80211176,"ECCENTRICITY":0.00023861,"INCLINATION":86.2023,"RA_OF_ASC_NODE":17.117,"ARG_OF_PERICENTER":77.462,"MEAN_ANOMALY":282.6868,"EPHEMERIS_TYPE":0,"CLASSIFICATION_TYPE":"U","NORAD_CAT_ID":56727,"ELEMENT_SET_NO":999,"REV_AT_EPOCH":15130,"BSTAR":0.00027819631,"MEAN_MOTION_DOT":2.139e-5,"MEAN_MOTION_DDOT":0},{"OBJECT_NAME":"IRIDIUM 174","OBJECT_ID":"2023-068U","EPOCH":"2026-03-07T09:43:24.844224","MEAN_MOTION":14.72238734,"ECCENTRICITY":0.00027421,"INCLINATION":86.6121,"RA_OF_ASC_NODE":36.2156,"ARG_OF_PERICENTER":79.5539,"MEAN_ANOMALY":280.5987,"EPHEMERIS_TYPE":0,"CLASSIFICATION_TYPE":"U","NORAD_CAT_ID":56728,"ELEMENT_SET_NO":999,"REV_AT_EPOCH":15104,"BSTAR":0.0002523553,"MEAN_MOTION_DOT":1.615e-5,"MEAN_MOTION_DDOT":0},{"OBJECT_NAME":"IRIDIUM 178","OBJECT_ID":"2023-068V","EPOCH":"2026-03-07T12:05:16.040832","MEAN_MOTION":14.80234945,"ECCENTRICITY":0.00024127,"INCLINATION":86.6484,"RA_OF_ASC_NODE":67.8526,"ARG_OF_PERICENTER":100.7098,"MEAN_ANOMALY":259.4395,"EPHEMERIS_TYPE":0,"CLASSIFICATION_TYPE":"U","NORAD_CAT_ID":56729,"ELEMENT_SET_NO":999,"REV_AT_EPOCH":15132,"BSTAR":0.00010035656,"MEAN_MOTION_DOT":7.89e-6,"MEAN_MOTION_DDOT":0},{"OBJECT_NAME":"IRIDIUM 179","OBJECT_ID":"2023-068W","EPOCH":"2026-03-07T13:34:52.821696","MEAN_MOTION":14.80235633,"ECCENTRICITY":0.00023008,"INCLINATION":86.6719,"RA_OF_ASC_NODE":76.5118,"ARG_OF_PERICENTER":95.1282,"MEAN_ANOMALY":265.0202,"EPHEMERIS_TYPE":0,"CLASSIFICATION_TYPE":"U","NORAD_CAT_ID":56730,"ELEMENT_SET_NO":999,"REV_AT_EPOCH":15133,"BSTAR":8.2212386e-5,"MEAN_MOTION_DOT":6.51e-6,"MEAN_MOTION_DDOT":0}]
