IRIDIUM 173             
1 43925U 19002D   26066.39443089 -.00000027  00000+0 -16666-4 0  9994
2 43925  86.3969  36.0922 0002019  82.7041 277.4385 14.34216486374360
IRIDIUM 169             
1 43926U 19002E   26066.49214842  .00000221  00000+0  65674-4 0  9996
2 43926  86.4169  67.7065 0001459  79.5064 280.6298 14.38611595375600
IRIDIUM 172             
1 43927U 19002F   26066.45785477  .00000266  00000+0  88029-4 0  9998
2 43927  86.3969  36.0729 0002382  86.2095 273.9373 14.34219888374387
IRIDIUM 175             
1 43928U 19002G   26066.47470418  .00001373  00000+0  21387-3 0  9990
2 43928  86.1539 333.7114 0002931 101.7020 258.4525 14.72224750384277
IRIDIUM 171             
1 43929U 19002H   26066.43883057  .00000015  00000+0 -16404-5 0  9993
2 43929  86.3979  36.3758 0002104  92.0753 268.0684 14.34217429374371
IRIDIUM 170             
1 43930U 19002J   26066.41751127  .00001460  00000+0  22753-3 0  9991
2 43930  86.6090  36.0752 0002710  89.4254 270.7274 14.72255936384283
IRIDIUM 167             
1 43931U 19002K   26066.43248732 -.00000038  00000+0 -20592-4 0  9999
2 43931  86.3965  36.1053 0001777  92.0731 268.0669 14.34217156374376
IRIDIUM 181             
1 56726U 23068S   26066.46955293  .00000434  00000+0  12293-3 0  9998
2 56726  86.4456  99.3284 0002637  96.3961 263.7540 14.43317267147768
IRIDIUM 177             
1 56727U 23068T   26066.37930976  .00002139  00000+0  27820-3 0  9996
2 56727  86.2023  17.1170 0002386  77.4620 282.6868 14.80211176151303
IRIDIUM 174             
1 56728U 23068U   26066.40514866  .00001615  00000+0  25236-3 0  9994
2 56728  86.6121  36.2156 0002742  79.5539 280.5987 14.72238734151041
IRIDIUM 178             
1 56729U 23068V   26066.50365788  .00000789  00000+0  10036-3 0  9996
2 56729  86.6484  67.8526 0002412 100.7098 259.4395 14.80234945151324
IRIDIUM 179             
1 56730U 23068W   26066.56588914  .00000651  00000+0  82212-4 0  9996
2 56730  86.6719  76.5118 0002300  95.1282 265.0202 14.80235633151335
